[{"OBJECT_NAME":"STARLINK-32464","OBJECT_ID":"2024-224B","EPOCH":"2026-03-09T12:59:24.614304","MEAN_MOTION":15.27568956,"ECCENTRICITY":0.00019199,"INCLINATION":42.9933,"RA_OF_ASC_NODE":159.2559,"ARG_OF_PERICENTER":287.9756,"MEAN_ANOMALY":72.0887,"EPHEMERIS_TYPE":0,"CLASSIFICATION_TYPE":"U","NORAD_CAT_ID":62140,"ELEMENT_SET_NO":999,"REV_AT_EPOCH":7239,"BSTAR":0.0012977747,"MEAN_MOTION_DOT":0.00035611,"MEAN_MOTION_DDOT":0},{"OBJECT_NAME":"KUIPER-00209","OBJECT_ID":"2026-030N","EPOCH":"2026-03-09T14:49:43.575744","MEAN_MOTION":15.3016195,"ECCENTRICITY":0.0012191,"INCLINATION":51.8838,"RA_OF_ASC_NODE":220.0775,"ARG_OF_PERICENTER":59.1967,"MEAN_ANOMALY":301.0215,"EPHEMERIS_TYPE":0,"CLASSIFICATION_TYPE":"U","NORAD_CAT_ID":67776,"ELEMENT_SET_NO":999,"REV_AT_EPOCH":507,"BSTAR":0.0011963,"MEAN_MOTION_DOT":0.00035298,"MEAN_MOTION_DDOT":0}]
